NORAD_CAT_ID,OBJECT_NAME,OBJECT_TYPE,EPOCH,MEAN_MOTION,ECCENTRICITY,INCLINATION,RA_OF_ASC_NODE,ARG_OF_PERICENTER,MEAN_ANOMALY,BSTAR,MEAN_MOTION_DOT,MEAN_MOTION_DDOT,TLE_LINE0,TLE_LINE1,TLE_LINE2,SEMIMAJOR_AXIS,PERIOD,APOGEE,PERIGEE,DECAYED
54766.0,STARLINK-5471,PAYLOAD,2023-03-04 01:56:47,15.08892746,5.01e-05,53.2162,309.4222,55.5986,304.5053,0.0021438,0.00034045,0.0,0 STARLINK-5471,1 54766U 22175J   23063.08110353  .00034045  00000-0  21438-2 0  9996,2 54766  53.2162 309.4222 0000501  55.5986 304.5053 15.08892746 11456,6917.719,95.434,539.931,539.238,0.0
54766.0,STARLINK-5471,PAYLOAD,2023-03-04 22:36:49,15.0884557,0.0001394,53.2172,305.5576,64.7228,295.3908,0.002008,0.00031819,0.0,0 STARLINK-5471,1 54766U 22175J   23063.94223795  .00031819  00000-0  20080-2 0  9994,2 54766  53.2172 305.5576 0001394  64.7228 295.3908 15.08845570 11581,6917.863,95.437,540.693,538.764,0.0
54766.0,STARLINK-5471,PAYLOAD,2023-03-05 01:47:35,15.08834096,9.6e-05,53.2172,304.9612,36.3514,323.7543,0.0015479,0.00024429,0.0,0 STARLINK-5471,1 54766U 22175J   23064.07471858  .00024429  00000-0  15479-2 0  9999,2 54766  53.2172 304.9612 0000960  36.3514 323.7543 15.08834096 11601,6917.898,95.438,540.428,539.099,0.0
54766.0,STARLINK-5471,PAYLOAD,2023-03-05 22:27:36,15.08849756,7.81e-05,53.2163,301.096,37.9252,322.1796,0.0020275,0.00032136,0.0,0 STARLINK-5471,1 54766U 22175J   23064.93584090  .00032136  00000-0  20275-2 0  9991,2 54766  53.2163 301.0960 0000781  37.9252 322.1796 15.08849756 11738,6917.851,95.437,540.256,539.175,0.0
54766.0,STARLINK-5471,PAYLOAD,2023-03-06 01:38:22,15.08878529,8.46e-05,53.2172,300.5017,38.138,321.9672,0.0023465,0.00037294,0.0,0 STARLINK-5471,1 54766U 22175J   23065.06831554  .00037294  00000-0  23465-2 0  9990,2 54766  53.2172 300.5017 0000846  38.1380 321.9672 15.08878529 11754,6917.763,95.435,540.213,539.042,0.0
54766.0,STARLINK-5471,PAYLOAD,2023-03-06 15:56:51,15.08843844,8.89e-05,53.2169,297.8244,57.2847,302.8231,0.001209,0.00019008,0.0,0 STARLINK-5471,1 54766U 22175J   23065.66448061  .00019008  00000-0  12090-2 0  9998,2 54766  53.2169 297.8244 0000889  57.2847 302.8231 15.08843844 11848,6917.869,95.437,540.349,539.119,0.0
54766.0,STARLINK-5471,PAYLOAD,2023-03-06 22:18:23,15.08844609,9.21e-05,53.2167,296.6344,50.668,309.4393,0.0010394,0.00016295,0.0,0 STARLINK-5471,1 54766U 22175J   23065.92944083  .00016295  00000-0  10394-2 0  9992,2 54766  53.2167 296.6344 0000921  50.6680 309.4393 15.08844609 14040,6917.866,95.437,540.368,539.094,0.0
54766.0,STARLINK-5471,PAYLOAD,2023-03-07 15:47:38,15.08843887,8.06e-05,53.2163,293.3669,64.413,295.6945,0.0004961,7.617e-05,0.0,0 STARLINK-5471,1 54766U 22175J   23066.65808224  .00007617  00000-0  49610-3 0  9991,2 54766  53.2163 293.3669 0000806  64.4130 295.6945 15.08843887 11992,6917.869,95.437,540.291,539.176,0.0
54766.0,STARLINK-5471,PAYLOAD,2023-03-07 22:09:10,15.08855777,7.18e-05,53.2158,292.1774,62.6879,297.4186,0.0006991,0.00010861,0.0,0 STARLINK-5471,1 54766U 22175J   23066.92303870  .00010861  00000-0  69910-3 0  9998,2 54766  53.2158 292.1774 0000718  62.6879 297.4186 15.08855777 14195,6917.832,95.437,540.194,539.2,0.0
54766.0,STARLINK-5471,PAYLOAD,2023-03-08 01:19:56,15.08860205,0.0001455,53.2161,291.5824,84.3473,275.7685,0.00082019,0.00012797,0.0,0 STARLINK-5471,1 54766U 22175J   23067.05551696  .00012797  00000-0  82019-3 0  9999,2 54766  53.2161 291.5824 0001455  84.3473 275.7685 15.08860205 12056,6917.819,95.436,540.69,538.677,0.0
54766.0,STARLINK-5471,PAYLOAD,2023-03-08 23:35:21,15.08845173,0.0001166,53.2138,287.4183,57.9802,302.1304,0.00043213,6.597e-05,0.0,0 STARLINK-5471,1 54766U 22175J   23067.98288390  .00006597  00000-0  43213-3 0  9993,2 54766  53.2138 287.4183 0001166  57.9802 302.1304 15.08845173 12198,6917.865,95.437,540.536,538.923,0.0
54766.0,STARLINK-5471,PAYLOAD,2023-03-09 18:39:59,15.08846586,0.0001735,53.2175,283.8487,71.1768,288.9412,0.00062514,9.677e-05,0.0,0 STARLINK-5471,1 54766U 22175J   23068.77776665  .00009677  00000-0  62514-3 0  9995,2 54766  53.2175 283.8487 0001735  71.1768 288.9412 15.08846586 12311,6917.86,95.437,540.926,538.525,0.0
54766.0,STARLINK-5471,PAYLOAD,2023-03-09 21:50:45,15.08851507,0.0001128,53.2159,283.2542,65.9095,294.2015,0.00075251,0.00011712,0.0,0 STARLINK-5471,1 54766U 22175J   23068.91024372  .00011712  00000-0  75251-3 0  9997,2 54766  53.2159 283.2542 0001128  65.9095 294.2015 15.08851507 14498,6917.845,95.437,540.491,538.93,0.0
54766.0,STARLINK-5471,PAYLOAD,2023-03-10 07:23:04,15.08853147,8.28e-05,53.2163,281.4694,86.4033,273.7053,0.00047842,7.337e-05,0.0,0 STARLINK-5471,1 54766U 22175J   23069.30768712  .00007337  00000-0  47842-3 0  9997,2 54766  53.2163 281.4694 0000828  86.4033 273.7053 15.08853147 12390,6917.84,95.437,540.278,539.132,0.0
54766.0,STARLINK-5471,PAYLOAD,2023-03-10 20:06:09,15.08841436,9.53e-05,53.216,279.0886,81.1273,278.9827,0.0003476,5.249e-05,0.0,0 STARLINK-5471,1 54766U 22175J   23069.83760667  .00005249  00000-0  34760-3 0  9991,2 54766  53.2160 279.0886 0000953  81.1273 278.9827 15.08841436 12473,6917.876,95.437,540.4,539.082,0.0
54766.0,STARLINK-5471,PAYLOAD,2023-03-11 23:07:42,15.08855046,9.66e-05,53.2162,274.0337,76.9723,283.1377,0.00075673,0.00011781,0.0,0 STARLINK-5471,1 54766U 22175J   23070.96368613  .00011781  00000-0  75673-3 0  9998,2 54766  53.2162 274.0337 0000966  76.9723 283.1377 15.08855046 12646,6917.834,95.437,540.368,539.031,0.0
54766.0,STARLINK-5471,PAYLOAD,2023-03-12 22:58:29,15.08845348,6.74e-05,53.2158,269.574,111.2226,248.8838,0.00055468,8.552e-05,0.0,0 STARLINK-5471,1 54766U 22175J   23071.95728728  .00008552  00000-0  55468-3 0  9997,2 54766  53.2158 269.5740 0000674 111.2226 248.8838 15.08845348 12795,6917.864,95.437,540.195,539.263,0.0
54766.0,STARLINK-5471,PAYLOAD,2023-03-13 13:16:58,15.08830927,9.82e-05,53.2172,266.897,100.4999,259.6104,0.00043911,6.706e-05,0.0,0 STARLINK-5471,1 54766U 22175J   23072.55345215  .00006706  00000-0  43911-3 0  9999,2 54766  53.2172 266.8970 0000982 100.4999 259.6104 15.08830927 12888,6917.908,95.438,540.452,539.094,0.0
54766.0,STARLINK-5471,PAYLOAD,2023-03-14 13:07:45,15.08848479,0.0001014,53.2167,262.4371,100.7033,259.4073,0.00051444,7.911e-05,0.0,0 STARLINK-5471,1 54766U 22175J   23073.54705242  .00007911  00000-0  51444-3 0  9998,2 54766  53.2167 262.4371 0001014 100.7033 259.4073 15.08848479 15199,6917.854,95.437,540.421,539.018,0.0
54766.0,STARLINK-5471,PAYLOAD,2023-03-15 05:01:36,15.08859204,9.23e-05,53.2162,259.4636,92.7314,267.3784,0.00053521,8.245e-05,0.0,0 STARLINK-5471,1 54766U 22175J   23074.20944587  .00008245  00000-0  53521-3 0  9998,2 54766  53.2162 259.4636 0000923  92.7314 267.3784 15.08859204 13131,6917.822,95.436,540.325,539.048,0.0
54766.0,STARLINK-5471,PAYLOAD,2023-03-15 11:23:08,15.08853081,0.0001657,53.2163,258.2758,104.1663,255.9513,0.00031636,4.752e-05,0.0,0 STARLINK-5471,1 54766U 22175J   23074.47440641  .00004752  00000-0  31636-3 0  9991,2 54766  53.2163 258.2758 0001657 104.1663 255.9513 15.08853081 15338,6917.84,95.437,540.852,538.559,0.0
54766.0,STARLINK-5471,PAYLOAD,2023-03-15 19:20:03,15.0886049,0.0001429,53.2164,256.7903,97.4525,262.6629,0.00036049,5.457e-05,0.0,0 STARLINK-5471,1 54766U 22175J   23074.80560139  .00005457  00000-0  36049-3 0  9999,2 54766  53.2164 256.7903 0001429  97.4525 262.6629 15.08860490 15382,6917.818,95.436,540.671,538.694,0.0
54766.0,STARLINK-5471,PAYLOAD,2023-03-16 04:52:23,15.08836297,0.0001446,53.215,255.0031,79.752,280.3635,-0.00023267,-3.989e-05,0.0,0 STARLINK-5471,1 54766U 22175J   23075.20304640 -.00003989  00000-0 -23267-3 0  9995,2 54766  53.2150 255.0031 0001446  79.7520 280.3635 15.08836297 13287,6917.892,95.438,540.757,538.756,0.0
54766.0,STARLINK-5471,PAYLOAD,2023-03-16 20:46:15,15.08829019,0.0001529,53.214,252.03,79.9231,280.1934,-0.00017354,-3.048e-05,0.0,0 STARLINK-5471,1 54766U 22175J   23075.86545211 -.00003048  00000-0 -17354-3 0  9994,2 54766  53.2140 252.0300 0001529  79.9231 280.1934 15.08829019 15540,6917.914,95.438,540.837,538.721,0.0
54766.0,STARLINK-5471,PAYLOAD,2023-03-17 12:40:06,15.08834574,0.000141,53.2128,249.0551,75.6399,284.4749,0.00011578,1.555e-05,0.0,0 STARLINK-5471,1 54766U 22175J   23076.52785539  .00001555  00000-0  11578-3 0  9998,2 54766  53.2128 249.0551 0001410  75.6399 284.4749 15.08834574 13481,6917.897,95.438,540.737,538.787,0.0
54766.0,STARLINK-5471,PAYLOAD,2023-03-17 20:37:02,15.08844891,0.0001204,53.2146,247.5686,85.9774,274.1356,0.00037562,5.696e-05,0.0,0 STARLINK-5471,1 54766U 22175J   23076.85905233  .00005696  00000-0  37562-3 0  9990,2 54766  53.2146 247.5686 0001204  85.9774 274.1356 15.08844891 15693,6917.865,95.437,540.563,538.898,0.0
54766.0,STARLINK-5471,PAYLOAD,2023-03-18 18:52:25,15.0885482,0.0001309,53.2151,243.4062,83.8646,276.2496,0.00061353,9.494e-05,0.0,0 STARLINK-5471,1 54766U 22175J   23077.78641091  .00009494  00000-0  61353-3 0  9997,2 54766  53.2151 243.4062 0001309  83.8646 276.2496 15.08854820 13670,6917.835,95.437,540.606,538.795,0.0
54766.0,STARLINK-5471,PAYLOAD,2023-03-18 20:27:48,15.08858319,0.0001288,53.2149,243.1087,83.1632,276.9507,0.00074827,0.00011647,0.0,0 STARLINK-5471,1 54766U 22175J   23077.85265001  .00011647  00000-0  74827-3 0  9991,2 54766  53.2149 243.1087 0001288  83.1632 276.9507 15.08858319 15843,6917.824,95.436,540.58,538.798,0.0
54766.0,STARLINK-5471,PAYLOAD,2023-03-19 04:24:44,15.0884866,7.27e-05,53.2153,241.6219,100.3759,259.7315,0.00044134,6.745e-05,0.0,0 STARLINK-5471,1 54766U 22175J   23078.18384934  .00006745  00000-0  44134-3 0  9996,2 54766  53.2153 241.6219 0000727 100.3759 259.7315 15.08848660 13737,6917.854,95.437,540.222,539.216,0.0
54766.0,STARLINK-5471,PAYLOAD,2023-03-19 13:57:03,15.08848483,0.0001021,53.2153,239.8378,93.8291,266.2818,0.0011278,0.00017711,0.0,0 STARLINK-5471,1 54766U 22175J   23078.58129122  .00017711  00000-0  11278-2 0  9993,2 54766  53.2153 239.8378 0001021  93.8291 266.2818 15.08848483 15957,6917.854,95.437,540.426,539.013,0.0
